O3B MPOWER F1           
1 54755U 22174A   24112.81853549 -.00000020  00000+0  00000+0 0  9996
2 54755   0.0654   2.9913 0006669  33.6572  46.4380  5.00114746 26023
